[{"OBJECT_NAME":"SAUDICOMSAT 5","OBJECT_ID":"2007-012H","EPOCH":"2026-03-09T22:03:24.279264","MEAN_MOTION":14.68003311,"ECCENTRICITY":0.00488208,"INCLINATION":98.3394,"RA_OF_ASC_NODE":41.8497,"ARG_OF_PERICENTER":78.2285,"MEAN_ANOMALY":282.439,"EPHEMERIS_TYPE":0,"CLASSIFICATION_TYPE":"U","NORAD_CAT_ID":31124,"ELEMENT_SET_NO":999,"REV_AT_EPOCH":903,"BSTAR":0.00021628636,"MEAN_MOTION_DOT":1.209e-5,"MEAN_MOTION_DDOT":0},{"OBJECT_NAME":"HEAD-3B","OBJECT_ID":"2023-121B","EPOCH":"2026-03-09T23:22:36.568704","MEAN_MOTION":14.6140341,"ECCENTRICITY":0.00038894,"INCLINATION":45.0025,"RA_OF_ASC_NODE":73.4072,"ARG_OF_PERICENTER":120.6786,"MEAN_ANOMALY":239.4455,"EPHEMERIS_TYPE":0,"CLASSIFICATION_TYPE":"U","NORAD_CAT_ID":57627,"ELEMENT_SET_NO":999,"REV_AT_EPOCH":13715,"BSTAR":0.00022518075,"MEAN_MOTION_DOT":9.66e-6,"MEAN_MOTION_DDOT":0}]
